{
  "norad_id": 55337,
  "name": "STARLINK-5667",
  "history": [
    {
      "epoch": "2026-03-28T22:00:01.999584Z",
      "apogee_km": 486.51807679264857,
      "perigee_km": 484.4581656212722,
      "latitude_deg": -43.05392128179494,
      "longitude_deg": -61.131718841546416,
      "height_km": 497.7747957668045,
      "semi_major_axis_km": 6863.62512120696,
      "eccentricity": 0.00015006,
      "inclination_deg": 43.0011,
      "raan_deg": 180.2939,
      "arg_perigee_deg": 281.7416,
      "mean_anomaly_deg": 351.8649,
      "mean_motion_rev_day": 15.26765822
    },
    {
      "epoch": "2026-03-29T04:00:01.999584Z",
      "apogee_km": 486.6076663800259,
      "perigee_km": 484.62129670126706,
      "latitude_deg": -19.644564373983854,
      "longitude_deg": 134.67355129000532,
      "height_km": 489.4867881029395,
      "semi_major_axis_km": 6863.751481540646,
      "eccentricity": 0.0001447,
      "inclination_deg": 43.0008,
      "raan_deg": 178.8834,
      "arg_perigee_deg": 272.6468,
      "mean_anomaly_deg": 296.6577,
      "mean_motion_rev_day": 15.26723661
    },
    {
      "epoch": "2026-03-30T00:00:01.999296Z",
      "apogee_km": 486.72086445067544,
      "perigee_km": 484.4119146304338,
      "latitude_deg": 38.36358610449631,
      "longitude_deg": 109.20048812728474,
      "height_km": 488.76344294236515,
      "semi_major_axis_km": 6863.703389540554,
      "eccentricity": 0.0001682,
      "inclination_deg": 43.0015,
      "raan_deg": 174.1834,
      "arg_perigee_deg": 273.0186,
      "mean_anomaly_deg": 201.879,
      "mean_motion_rev_day": 15.26739707
    },
    {
      "epoch": "2026-03-30T05:46:48.889632Z",
      "apogee_km": 486.43630748041596,
      "perigee_km": 484.662868139857,
      "latitude_deg": 9.313381948531487e-06,
      "longitude_deg": -101.51290831462521,
      "height_km": 485.19618075998625,
      "semi_major_axis_km": 6863.686587810136,
      "eccentricity": 0.00012919,
      "inclination_deg": 43.0023,
      "raan_deg": 172.8262,
      "arg_perigee_deg": 278.4541,
      "mean_anomaly_deg": 81.6164,
      "mean_motion_rev_day": 15.26745313
    },
    {
      "epoch": "2026-03-30T12:03:38.818368Z",
      "apogee_km": 486.4075775405181,
      "perigee_km": 484.69522455822516,
      "latitude_deg": 4.9710262433660344e-05,
      "longitude_deg": 162.5449662273135,
      "height_km": 485.23143787512134,
      "semi_major_axis_km": 6863.688401049371,
      "eccentricity": 0.00012474,
      "inclination_deg": 43.0021,
      "raan_deg": 171.35,
      "arg_perigee_deg": 276.4955,
      "mean_anomaly_deg": 83.5755,
      "mean_motion_rev_day": 15.26744708
    },
    {
      "epoch": "2026-03-31T13:10:58.590336Z",
      "apogee_km": 486.46636136750476,
      "perigee_km": 484.6529727080724,
      "latitude_deg": 1.219523899768097e-06,
      "longitude_deg": 138.77610226026283,
      "height_km": 485.3118374668566,
      "semi_major_axis_km": 6863.696667037788,
      "eccentricity": 0.0001321,
      "inclination_deg": 43.0014,
      "raan_deg": 165.4453,
      "arg_perigee_deg": 271.5615,
      "mean_anomaly_deg": 88.5085,
      "mean_motion_rev_day": 15.2674195
    },
    {
      "epoch": "2026-04-01T06:27:15.474240Z",
      "apogee_km": 486.63187588085384,
      "perigee_km": 484.3243284835007,
      "latitude_deg": -5.235055497172833e-05,
      "longitude_deg": -125.06421291668651,
      "height_km": 485.21901756497317,
      "semi_major_axis_km": 6863.615102182177,
      "eccentricity": 0.0001681,
      "inclination_deg": 43.0006,
      "raan_deg": 161.3847,
      "arg_perigee_deg": 271.7965,
      "mean_anomaly_deg": 88.2693,
      "mean_motion_rev_day": 15.26769165
    },
    {
      "epoch": "2026-04-02T10:43:00.712128Z",
      "apogee_km": 486.58959350190344,
      "perigee_km": 484.52389623244835,
      "latitude_deg": 4.186242283979402e-06,
      "longitude_deg": 163.1969550432089,
      "height_km": 485.30648653063383,
      "semi_major_axis_km": 6863.693744867175,
      "eccentricity": 0.00015048,
      "inclination_deg": 43.0023,
      "raan_deg": 154.745,
      "arg_perigee_deg": 271.5195,
      "mean_anomaly_deg": 88.5484,
      "mean_motion_rev_day": 15.26742925
    },
    {
      "epoch": "2026-04-03T20:00:01.999008Z",
      "apogee_km": 486.64494047464905,
      "perigee_km": 484.5309131971844,
      "latitude_deg": 40.41702438606329,
      "longitude_deg": 80.00155899629091,
      "height_km": 489.1788002285612,
      "semi_major_axis_km": 6863.724926835916,
      "eccentricity": 0.000154,
      "inclination_deg": 43.001,
      "raan_deg": 146.9233,
      "arg_perigee_deg": 263.2406,
      "mean_anomaly_deg": 168.1426,
      "mean_motion_rev_day": 15.26732521
    },
    {
      "epoch": "2026-04-04T00:00:02.999808Z",
      "apogee_km": 486.8853209505296,
      "perigee_km": 484.5019244051118,
      "latitude_deg": -43.1424417798964,
      "longitude_deg": -138.29623486210397,
      "height_km": 497.853792480209,
      "semi_major_axis_km": 6863.83062267782,
      "eccentricity": 0.00017362,
      "inclination_deg": 43.0008,
      "raan_deg": 145.9829,
      "arg_perigee_deg": 261.4958,
      "mean_anomaly_deg": 7.0797,
      "mean_motion_rev_day": 15.26697256
    },
    {
      "epoch": "2026-04-05T09:22:22.708704Z",
      "apogee_km": 486.67909749921,
      "perigee_km": 484.4751588926465,
      "latitude_deg": 3.2144204400059144e-05,
      "longitude_deg": 163.85048778007132,
      "height_km": 485.30763613928065,
      "semi_major_axis_km": 6863.714128195928,
      "eccentricity": 0.00016055,
      "inclination_deg": 43.0043,
      "raan_deg": 138.1419,
      "arg_perigee_deg": 272.4406,
      "mean_anomaly_deg": 87.6262,
      "mean_motion_rev_day": 15.26736124
    },
    {
      "epoch": "2026-04-06T04:12:52.341120Z",
      "apogee_km": 486.60159035164725,
      "perigee_km": 484.5482422947607,
      "latitude_deg": -1.111294446194157e-07,
      "longitude_deg": -123.97551210149591,
      "height_km": 485.3226739100881,
      "semi_major_axis_km": 6863.711916323204,
      "eccentricity": 0.00014958,
      "inclination_deg": 43.0038,
      "raan_deg": 133.7132,
      "arg_perigee_deg": 271.6484,
      "mean_anomaly_deg": 88.4196,
      "mean_motion_rev_day": 15.26736862
    },
    {
      "epoch": "2026-04-07T10:02:49.432416Z",
      "apogee_km": 486.57097922705,
      "perigee_km": 484.55113016351424,
      "latitude_deg": -3.8342992036643526e-05,
      "longitude_deg": 140.29928517643918,
      "height_km": 485.48551511497874,
      "semi_major_axis_km": 6863.698054695282,
      "eccentricity": 0.00014714,
      "inclination_deg": 43.0034,
      "raan_deg": 126.7011,
      "arg_perigee_deg": 261.6152,
      "mean_anomaly_deg": 98.4532,
      "mean_motion_rev_day": 15.26741487
    },
    {
      "epoch": "2026-04-08T08:01:44.345856Z",
      "apogee_km": 486.5533180620441,
      "perigee_km": 484.5524151921245,
      "latitude_deg": -2.5888328504724613e-05,
      "longitude_deg": 164.50362432829434,
      "height_km": 485.30598616222716,
      "semi_major_axis_km": 6863.689866627084,
      "eccentricity": 0.00014576,
      "inclination_deg": 43.0048,
      "raan_deg": 121.537,
      "arg_perigee_deg": 271.3891,
      "mean_anomaly_deg": 88.6793,
      "mean_motion_rev_day": 15.26744219
    },
    {
      "epoch": "2026-04-09T02:52:13.858176Z",
      "apogee_km": 486.53667506189686,
      "perigee_km": 484.59054139144064,
      "latitude_deg": -2.5244029229257463e-05,
      "longitude_deg": -123.3219395790083,
      "height_km": 485.41412606487114,
      "semi_major_axis_km": 6863.700608226669,
      "eccentricity": 0.00014177,
      "inclination_deg": 43.0041,
      "raan_deg": 117.1082,
      "arg_perigee_deg": 265.6815,
      "mean_anomaly_deg": 94.3874,
      "mean_motion_rev_day": 15.26740635
    },
    {
      "epoch": "2026-04-10T07:07:58.697760Z",
      "apogee_km": 486.8431126093892,
      "perigee_km": 484.2402683763803,
      "latitude_deg": 1.6448753497697206e-05,
      "longitude_deg": 164.94257220355837,
      "height_km": 485.11732992578686,
      "semi_major_axis_km": 6863.678690492884,
      "eccentricity": 0.00018961,
      "inclination_deg": 43.0089,
      "raan_deg": 110.4702,
      "arg_perigee_deg": 278.9533,
      "mean_anomaly_deg": 81.1104,
      "mean_motion_rev_day": 15.26747948
    },
    {
      "epoch": "2026-04-11T01:58:28.680096Z",
      "apogee_km": 486.63262207853677,
      "perigee_km": 484.4885402281352,
      "latitude_deg": 3.970079905254044e-05,
      "longitude_deg": -122.88583076225352,
      "height_km": 485.3367264412686,
      "semi_major_axis_km": 6863.697581153336,
      "eccentricity": 0.00015619,
      "inclination_deg": 43.0074,
      "raan_deg": 106.0405,
      "arg_perigee_deg": 270.0851,
      "mean_anomaly_deg": 89.9822,
      "mean_motion_rev_day": 15.26741645
    },
    {
      "epoch": "2026-04-13T05:47:16.630944Z",
      "apogee_km": 486.4681464226478,
      "perigee_km": 483.4835159146296,
      "latitude_deg": 2.5034163515410228e-05,
      "longitude_deg": 165.60685917976843,
      "height_km": 485.8711344152956,
      "semi_major_axis_km": 6863.112831168639,
      "eccentricity": 0.00021744,
      "inclination_deg": 43.0042,
      "raan_deg": 93.8609,
      "arg_perigee_deg": 221.4699,
      "mean_anomaly_deg": 138.5988,
      "mean_motion_rev_day": 15.26936771
    },
    {
      "epoch": "2026-04-14T08:28:52.796640Z",
      "apogee_km": 486.7824234340196,
      "perigee_km": 484.41855224320807,
      "latitude_deg": 1.9657068318947862e-05,
      "longitude_deg": 117.83780588943647,
      "height_km": 485.63256560305956,
      "semi_major_axis_km": 6863.737487838614,
      "eccentricity": 0.0001722,
      "inclination_deg": 43.0052,
      "raan_deg": 87.5888,
      "arg_perigee_deg": 257.5643,
      "mean_anomaly_deg": 102.5016,
      "mean_motion_rev_day": 15.2672833
    }
  ]
}